OBJECT_NAME,OBJECT_ID,EPOCH,MEAN_MOTION,ECCENTRICITY,INCLINATION,RA_OF_ASC_NODE,ARG_OF_PERICENTER,MEAN_ANOMALY,EPHEMERIS_TYPE,CLASSIFICATION_TYPE,NORAD_CAT_ID,ELEMENT_SET_NO,REV_AT_EPOCH,BSTAR,MEAN_MOTION_DOT,MEAN_MOTION_DDOT
SKYSAT-C4,2016-058B,2026-06-08T00:37:56.203680,15.48303073,.0000835,96.9185,181.1836,93.5442,266.5905,0,U,41771,999,54405,.32478E-3,.1708E-3,0
SKYSAT-C5,2016-058C,2026-06-08T02:30:16.055136,15.34341868,.0002078,97.0477,200.1504,5.7480,354.3787,0,U,41772,999,54235,.25495E-3,.8404E-4,0
SKYSAT-C2,2016-058D,2026-06-08T01:03:48.936960,15.41863485,.0005129,97.0173,181.4849,90.2046,269.9789,0,U,41773,999,54364,.29876E-3,.12607E-3,0
SKYSAT-C3,2016-058E,2026-06-08T01:18:11.977056,15.52149605,.0001936,96.9014,190.2558,81.0427,279.1046,0,U,41774,999,54469,.42109E-3,.25423E-3,0
ALSAT-1B,2016-059C,2026-06-08T04:49:29.353152,14.72268845,.0007729,97.7756,168.3529,254.5970,105.4385,0,U,41785,999,51925,.10605E-3,.623E-5,0
PATHFINDER 1,2016-059E,2026-06-07T22:22:58.768032,14.67653090,.0027193,97.8166,158.6265,234.1007,125.7674,0,U,41787,999,51835,.12494E-3,.667E-5,0
SCATSAT 1,2016-059H,2026-06-08T03:37:05.761632,14.79507199,.0053288,98.1193,222.8235,277.3838,82.1319,0,U,41790,999,10025,.15246E-3,.1109E-4,0
GOKTURK 1A,2016-073A,2026-06-08T03:33:06.137280,14.62768543,.0001476,98.1256,53.9637,77.5742,282.5624,0,U,41875,999,50750,.8929E-4,.409E-5,0
RESOURCESAT-2A,2016-074A,2026-06-08T04:51:48.274848,14.21613070,.0003347,98.7520,232.7803,100.6517,259.5037,0,U,41877,999,49302,.24374E-4,.9E-7,0
CARTOSAT-2D,2017-008A,2026-06-08T04:49:39.874080,15.19266829,.0003506,97.4108,218.6746,273.8289,86.2545,0,U,41948,999,51621,.21957E-3,.4563E-4,0
SENTINEL-2B,2017-013A,2026-06-08T04:28:33.728736,14.30814685,.0001218,98.5686,234.0879,85.6739,274.4583,0,U,42063,999,48335,.69622E-4,.139E-5,0
CARTOSAT-2E,2017-036C,2026-06-08T03:40:09.402240,15.19253988,.0003185,97.4277,219.1039,359.6505,0.4726,0,U,42767,999,49677,.21442E-3,.4452E-4,0
FORMOSAT-5,2017-049A,2026-06-08T03:45:32.092416,14.50895557,.001266,98.2253,234.6668,109.2182,251.0384,0,U,42920,999,46536,.54274E-4,.171E-5,0
SENTINEL-5P,2017-064A,2026-06-08T02:37:13.368864,14.19517516,.0000995,98.7923,101.3052,81.6493,278.4795,0,U,42969,999,44827,.50057E-4,.61E-6,0
SKYSAT-C11,2017-068A,2026-06-07T22:26:25.372032,15.57416353,.0001058,97.4344,307.3677,89.0702,271.0675,0,U,42987,999,48180,.38784E-3,.28375E-3,0
SKYSAT-C10,2017-068B,2026-06-07T21:39:36.237600,15.34481998,.000125,97.4495,295.6613,89.9760,270.1626,0,U,42988,999,48093,.28119E-3,.9313E-4,0
SKYSAT-C9,2017-068C,2026-06-07T22:56:33.133056,15.41334622,.0008925,97.4416,296.5625,162.7776,197.3775,0,U,42989,999,48133,.32517E-3,.13496E-3,0
SKYSAT-C8,2017-068D,2026-06-07T21:18:33.912000,15.36794419,.0001565,97.4511,295.4111,98.3246,261.8176,0,U,42990,999,48088,.29815E-3,.10641E-3,0
SKYSAT-C7,2017-068E,2026-06-08T01:50:13.353216,15.36745901,.000697,97.4524,296.5914,133.4077,226.7748,0,U,42991,999,48097,.32277E-3,.11517E-3,0
SKYSAT-C6,2017-068F,2026-06-07T22:47:56.258880,15.34051610,.0003894,97.4558,296.4663,162.0776,198.0605,0,U,42992,999,48090,.29742E-3,.9723E-4,0
CARTOSAT-2F,2018-004A,2026-06-08T04:25:59.637792,15.19306449,.0000077,97.4784,218.9077,349.4337,10.6896,0,U,43111,999,46596,.23323E-3,.4855E-4,0
GAOFEN-1 02,2018-031A,2026-06-08T05:12:49.071168,14.76471154,.000435,98.0524,221.7691,53.5172,306.6438,0,U,43259,999,44137,.18063E-3,.1206E-4,0
GAOFEN-1 03,2018-031B,2026-06-08T04:41:23.375616,14.76456995,.0003825,98.0525,221.6066,96.7343,263.4302,0,U,43260,999,44136,.12762E-3,.836E-5,0
GAOFEN-1 04,2018-031D,2026-06-08T04:06:26.077824,14.76466883,.0002228,98.0525,221.7719,90.5666,269.5799,0,U,43262,999,44135,.1105E-3,.717E-5,0
SENTINEL-3B,2018-039A,2026-06-08T03:25:50.790144,14.26739258,.0000869,98.6250,226.8048,77.3993,282.7284,0,U,43437,999,42283,.62385E-4,.107E-5,0
GAOFEN-5 01,2018-043A,2026-06-08T03:44:42.099648,14.60599561,.0003019,98.4565,130.5529,99.7496,260.4045,0,U,43461,999,43037,.91501E-4,.396E-5,0
GAOFEN-6,2018-048A,2026-06-08T04:39:22.644576,14.76621942,.0011332,97.7757,222.2079,197.8547,162.2267,0,U,43484,999,43206,.8043E-4,.513E-5,0
GAOFEN-11 01,2018-063A,2026-06-08T03:57:44.564832,15.55025371,.0004107,97.1293,226.0710,28.7548,331.3932,0,U,43585,999,43894,.17684E-3,.11774E-3,0
ICESAT-2,2018-070A,2026-06-08T02:51:09.331200,15.28256485,.0005221,92.0068,288.5305,119.6694,240.5076,0,U,43613,999,43107,.39026E-3,.10746E-3,0
HYSIS,2018-096A,2026-06-08T03:27:04.712256,14.78677968,.0001657,97.9836,225.9623,112.5871,247.5515,0,U,43719,999,40608,.19233E-3,.1358E-4,0
KAZSTSAT,2018-099AB,2026-06-08T00:34:55.600032,14.99841772,.0007813,97.4264,191.3697,93.5092,266.7026,0,U,43783,999,40993,.12008E-3,.1432E-4,0
